satname,norad_id,inclination_deg,eccentricity,mean_motion_rev_per_day,perigee_km,apogee_km,l1,l2
STARLINK-1008,44714,53.1583,0.0001399,15.31032535,471.77196012072363,473.6888328182549,1 44714U 19074B   26035.21832822  .00001391  00000+0  57680-4 0  9998,2 44714  53.1583 334.4364 0001399 109.5615 250.5537 15.31032535343749
STARLINK-1012,44718,53.1592,0.0001304,15.30198751,474.32512111457527,476.1124763068792,1 44718U 19074F   26035.11506024  .00001854  00000+0  74727-4 0  9998,2 44718  53.1592 334.7600 0001304  90.6122 269.5029 15.30198751343724
STARLINK-1017,44723,53.0453,0.0002957,15.21479312,499.343490918257,503.4120359493518,1 44723U 19074L   26035.19832182  .00016486  00000+0  73661-3 0  9991,2 44723  53.0453 325.6266 0002957  99.4256 260.7074 15.21479312343865
STARLINK-1019,44724,53.0478,0.0011269,15.71362005,347.4159106153811,362.5910626441482,1 44724U 19074M   26035.91670139  .00057464  00000+0  44273-3 0  9992,2 44724  53.0478 300.3411 0011269  86.1122 353.2780 15.71362005  6005
STARLINK-1020,44725,53.0564,0.0001252,15.06385133,546.3900641825194,548.1241828710508,1 44725U 19074N   26035.57757215 -.00000144  00000+0  92326-5 0  9994,2 44725  53.0564 355.2655 0001252  83.9051 276.2081 15.06385133343476
STARLINK-1031,44736,53.044,0.0006997,15.76937211,334.42419886008156,343.8243342765172,1 44736U 19074Z   26035.91670139  .00132787  00000+0  79424-3 0  9993,2 44736  53.0440 285.4271 0006997 115.7208  57.1818 15.76937211  6026
STARLINK-1036,44741,53.0559,0.0005635,15.49159952,415.3519477119853,423.01252649219896,1 44741U 19074AE  26035.91670139  .00095238  00000+0  17076-2 0  9992,2 44741  53.0559 346.3655 0005635 102.9929 306.3494 15.49159952  5871
STARLINK-1039,44744,53.0523,0.0006003,15.1880406,505.31924994747624,513.588491546896,1 44744U 19074AH  26035.15017520  .00048583  00000+0  23051-2 0  9991,2 44744  53.0523   8.9068 0006003  75.5634 284.6026 15.18804060343251
STARLINK-1042,44747,53.0432,0.0003714,15.48073155,419.8374499575448,424.88886147320954,1 44747U 19074AL  26035.81073338  .00024816  00000+0  47264-3 0  9992,2 44747  53.0432 252.3303 0003714  94.5548 265.5883 15.48073155344976
STARLINK-1043,44748,53.0553,0.0002598,15.51384785,410.91776083601235,414.4462703965264,1 44748U 19074AM  26035.11844003  .00034938  00000+0  58859-3 0  9999,2 44748  53.0553 356.1850 0002598  47.9493 312.1737 15.51384785343436
STARLINK-1046,44751,53.0556,0.0006741,15.41046117,438.42246511834674,447.61874980472567,1 44751U 19074AQ  26035.91670139  .00120569  00000+0  28382-2 0  9991,2 44751  53.0556   6.2885 0006741  76.1631  92.1052 15.41046117  5901
STARLINK-1047,44752,53.0697,0.0004933,15.3177533,467.1370093648284,473.89388987162147,1 44752U 19074AR  26035.16359598  .00012021  00000+0  39752-3 0  9999,2 44752  53.0697 302.5280 0004933 106.3967 253.7576 15.31775330344208
STARLINK-1048,44753,53.0555,0.0006008,15.46043146,424.2254014084574,432.4040337923252,1 44753U 19074AS  26035.91670139  .01189184  00000+0  21791-1 0  9998,2 44753  53.0555 326.2879 0006008  89.5574 294.9208 15.46043146  5897
STARLINK-1053,44758,53.0316,0.0001999,15.78792754,332.5183431330024,335.20179956212723,1 44758U 19074AX  26035.81615058  .00131810  00000+0  72671-3 0  9998,2 44758  53.0316 249.5662 0001999 164.4546 195.6536 15.78792754344999
STARLINK-1060,44765,53.0359,0.0004762,16.08121644,248.84385925514562,255.15840281114197,1 44765U 19074BE  26035.97500032  .00935810  49547-3  10987-2 0  9994,2 44765  53.0359 286.9974 0004762 219.2726 140.7962 16.08121644344469
STARLINK-1063,44768,53.1673,0.0001724,15.29282304,476.77452387276844,479.13850491653193,1 44768U 19074BH  26035.33336806  .00152500  00000+0  52012-2 0  9992,2 44768  53.1673  14.3327 0001724  88.2342  36.5167 15.29282304  5758
STARLINK-1067,44771,53.0554,0.0007575,15.48972315,414.58177628072553,424.88054654526604,1 44771U 19074BL  26035.91670139  .00150198  00000+0  26861-2 0  9994,2 44771  53.0554   2.3168 0007575  91.6853  56.8110 15.48972315  5947
STARLINK-1068,44772,53.0542,0.0005036,15.56030081,395.74691625185915,402.57300975299586,1 44772U 19074BM  26035.91670139  .00090921  00000+0  12742-2 0  9995,2 44772  53.0542 339.4587 0005036 104.5988 103.7123 15.56030081  5880
STARLINK-1112,44925,53.0395,0.0002789,15.85408986,313.30661488847363,317.04014341796574,1 44925U 20001M   26035.91670139  .00350974  00000+0  13817-2 0  9998,2 44925  53.0395  49.4656 0002789  31.4303 208.7477 15.85408986  5920
STARLINK-1114,44927,53.0518,0.000571,15.447267,428.29253678809255,436.0699202050355,1 44927U 20001P   26035.73831019  .00070354  00000+0  14772-2 0  9998,2 44927  53.0518 126.8493 0005710   1.2548 358.8471 15.44726700334996
STARLINK-1123,44930,53.0547,0.000133,15.06392577,546.3132340735665,548.1553828416154,1 44930U 20001S   26035.54992045  .00000847  00000+0  75752-4 0  9995,2 44930  53.0547 135.3923 0001330  80.2264 279.8876 15.06392577334856
STARLINK-1144,44933,53.031,0.0005733,16.06206637,253.46588003770648,261.074037656721,1 44933U 20001V   26035.72736774  .00545760  15492-3  72038-3 0  9999,2 44933  53.0310  19.7601 0005733  75.9930 284.1739 16.06206637337781
STARLINK-1094,44941,53.1574,0.0001264,15.30199475,474.35037307542643,476.0829008748542,1 44941U 20001AD  26035.91670139 -.00011596  00000+0 -38000-3 0  9994,2 44941  53.1574 111.7910 0001264  90.3234  26.8654 15.30199475  5733
STARLINK-1122,44949,53.1561,0.0001264,15.29347975,476.8936580898944,478.6268289130512,1 44949U 20001AM  26035.59141318 -.00001768  00000+0 -48963-4 0  9998,2 44949  53.1561 113.3081 0001264  95.0817 265.0328 15.29347975335169
STARLINK-1080,44961,53.0528,0.0008679,15.42956503,431.4739144308769,443.3043046518196,1 44961U 20001AZ  26035.55159282  .00078664  00000+0  17492-2 0  9995,2 44961  53.0528  85.9093 0008679   1.9828 358.1209 15.42956503335550
STARLINK-1090,44968,53.0529,0.0001406,15.06390611,546.2666259673115,548.2140420736387,1 44968U 20001BG  26035.65313036 -.00004180  00000+0 -26197-3 0  9999,2 44968  53.0529  94.9265 0001406 102.7511 257.3635 15.06390611335431
STARLINK-1132,45044,53.1586,0.0003435,15.38680015,447.66616140362476,452.3570995127511,1 45044U 20006A   26035.32950701  .00091023  00000+0  23288-2 0  9997,2 45044  53.1586  51.5685 0003435  79.6108 280.5283 15.38680015331780
STARLINK-1131,45047,53.1541,0.0001402,15.29325138,476.8672884794187,478.78970120417216,1 45047U 20006D   26035.91670139  .00049738  00000+0  17261-2 0  9999,2 45047  53.1541  73.1474 0001402  87.3460 159.7956 15.29325138  5772
STARLINK-1134,45048,53.0347,0.0006784,15.3949937,442.9581171971404,452.219261812661,1 45048U 20006E   26035.37234501  .00098512  00000+0  24491-2 0  9996,2 45048  53.0347  36.2738 0006784  70.4490 289.7245 15.39499370332008
STARLINK-1156,45054,53.1347,0.0001685,15.24629329,490.7411119456365,493.05631398090463,1 45054U 20006L   26035.91670139  .01740627  00000+0  63648-1 0  9992,2 45054  53.1347  73.0911 0001685  94.1189  45.9357 15.24629329  5782
STARLINK-1159,45057,53.0481,0.0005396,15.70621711,353.4847004818339,360.7533888052121,1 45057U 20006P   26035.91670139  .00200081  00000+0  15557-2 0  9996,2 45057  53.0481  38.4560 0005396  15.9270 294.2200 15.70621711  5956
STARLINK-1166,45060,53.054,0.0003692,15.40901873,440.9277584983256,445.9648155974819,1 45060U 20006S   26035.54850010  .00088881  00000+0  21145-2 0  9999,2 45060  53.0540  70.0898 0003692  31.9586 328.1642 15.40901873331548
STARLINK-1169,45061,53.1264,5.62e-05,15.23024026,496.3389504373654,497.11168496187474,1 45061U 20006T   26035.91670139  .01101284  00000+0  42706-1 0  9992,2 45061  53.1264  73.0667 0000562  86.4760 247.7002 15.23024026  5778
STARLINK-1171,45062,53.0481,0.000411,15.5088079,411.3615283739073,416.94479088512253,1 45062U 20006U   26035.91670139  .00180416  00000+0  30052-2 0  9998,2 45062  53.0481  47.7961 0004110 286.8129  44.3645 15.50880790  5954
STARLINK-1133,45064,53.1585,0.0001277,15.30182619,474.3917867570972,476.1421461301261,1 45064U 20006W   26035.42022340 -.00000713  00000+0 -11967-4 0  9990,2 45064  53.1585  52.3338 0001277  91.6758 268.4389 15.30182619331783
STARLINK-1167,45071,53.1613,0.0001995,15.29356285,476.3676618632844,479.10315495423856,1 45071U 20006AD  26035.75669696 -.00001005  00000+0 -22480-4 0  9992,2 45071  53.1613  50.6276 0001995  74.7094 285.4127 15.29356285331832
STARLINK-1168,45072,53.1632,0.0001634,15.29357897,476.6103420808786,478.8508396095658,1 45072U 20006AE  26035.76649368  .00000045  00000+0  13902-4 0  9998,2 45072  53.1632  50.6444 0001634  94.2694 265.8493 15.29357897331832
STARLINK-1172,45074,53.1578,0.0001311,15.30193268,474.3366929400736,476.1336471230552,1 45074U 20006AG  26035.52768005 -.00000073  00000+0  96563-5 0  9991,2 45074  53.1578  51.8595 0001311  91.8035 268.3116 15.30193268331794
STARLINK-1153,45080,53.159,0.0003096,15.29357917,475.607954486396,479.8531076616373,1 45080U 20006AN  26035.47969699 -.00003300  00000+0 -10201-3 0  9994,2 45080  53.1590  51.8294 0003096  58.0944 302.0358 15.29357917331792
STARLINK-1151,45081,53.0525,0.0010982,15.52531797,401.8828906800236,416.79089834192746,1 45081U 20006AP  26035.91670139  .00164477  00000+0  25837-2 0  9993,2 45081  53.0525  38.8792 0010982  31.7969 339.4627 15.52531797  5961
STARLINK-1185,45087,53.0821,0.0002233,15.13203334,524.8966887859578,527.9802721955448,1 45087U 20006AV  26035.91670139  .00085297  00000+0  47093-2 0  9999,2 45087  53.0821  33.6075 0002233  77.8630  76.1091 15.13203334  5789
STARLINK-1183,45088,53.0685,7.04e-05,15.10433053,534.3916672047844,535.3650197651468,1 45088U 20006AW  26035.91670139  .00118203  00000+0  70084-2 0  9990,2 45088  53.0685  33.7086 0000704 106.2653 232.4897 15.10433053  5774
STARLINK-1152,45096,53.0439,0.0006703,15.34320749,458.3532279099345,467.52437412878044,1 45096U 20006BE  26035.28963228  .00017381  00000+0  52537-3 0  9992,2 45096  53.0439   3.4977 0006703  78.5155 281.6599 15.34320749332452
